2025-226A               
1 65938U 25226A   25306.51582150  .00008891  00000+0  52183-3 0  9998
2 65938  97.6669  20.7132 0014847 203.1336 156.9227 15.11881711  3394
2025-226B               
1 65939U 25226B   25306.54119002  .00005916  00000+0  36900-3 0  9998
2 65939  97.6633  20.6683 0020828 206.6073 153.4088 15.09728907  3388
2025-226C               
1 65940U 25226C   25306.45128709  .00008864  00000+0  52189-3 0  9996
2 65940  97.6579  20.6201 0014796 201.1880 158.8739 15.11768752  3374
YOTSUBA-KULOVER         
1 65941U 98067XN  25306.19457614  .00050853  00000+0  79362-3 0  9998
2 65941  51.6327 342.7961 0002694 352.6363   7.4587 15.53311816  3549
BOTAN                   
1 65942U 98067XP  25305.54523315  .00066684  00000+0  10070-2 0  9998
2 65942  51.6331 345.9591 0004625   5.6465 354.4577 15.54095782  3448
E-KAGAKU-1              
1 65943U 98067XQ  25305.48643289  .00048933  00000+0  76576-3 0  9996
2 65943  51.6344 346.3156 0004407 355.0444   5.0502 15.53246328  3431
2025-226D               
1 65944U 25226D   25306.48432735  .01039059  00000+0  24976-1 0  9992
2 65944  97.6590  21.0535 0020259 273.6163  86.2765 15.38621241  3390
SHIYAN-31               
1 65945U 25227A   25306.47023678  .00008688  00000+0  39765-3 0  9992
2 65945  80.0034  75.3949 0011494 202.6806 157.3914 15.20358413  3056
CZ-2D R/B               
1 65946U 25227B   25306.44379855  .00011097  00000+0  40959-3 0  9996
2 65946  80.1543  75.7264 0021337 329.3038  30.6943 15.27445498  3061
KUIPER-00101            
1 65947U 25228A   25306.48547432  .00054697  00000+0  15957-2 0  9992
2 65947  51.8803 214.5048 0006287 201.6219 158.4502 15.34795821  4235
KUIPER-00113            
1 65948U 25228B   25306.48215377  .00025746  00000+0  75316-3 0  9992
2 65948  51.8806 214.4820 0006219 200.2521 159.8219 15.35076687  4235
KUIPER-00117            
1 65949U 25228C   25306.48269176  .00019572  00000+0  57667-3 0  9998
2 65949  51.8804 214.4852 0006092 200.5037 159.5706 15.35022195  4236
