CCSDS_OMM_VERS = 2.0
CREATION_DATE  = 
ORIGINATOR     = 

OBJECT_NAME    = 2025-226A
OBJECT_ID      = 2025-226A
CENTER_NAME    = EARTH
REF_FRAME      = TEME
TIME_SYSTEM    = UTC
MEAN_ELEMENT_THEORY = SGP/SGP4

EPOCH          = 2025-11-02T12:22:46.977600
MEAN_MOTION    = 15.11881711
ECCENTRICITY   = .0014847
INCLINATION    = 97.6669
RA_OF_ASC_NODE = 20.7132
ARG_OF_PERICENTER = 203.1336
MEAN_ANOMALY   = 156.9227

EPHEMERIS_TYPE = 0
CLASSIFICATION_TYPE = U
NORAD_CAT_ID   = 65938
ELEMENT_SET_NO = 999
REV_AT_EPOCH   = 339
BSTAR          = .52183E-3
MEAN_MOTION_DOT = .8891E-4
MEAN_MOTION_DDOT = 0

CCSDS_OMM_VERS = 2.0
CREATION_DATE  = 
ORIGINATOR     = 

OBJECT_NAME    = 2025-226B
OBJECT_ID      = 2025-226B
CENTER_NAME    = EARTH
REF_FRAME      = TEME
TIME_SYSTEM    = UTC
MEAN_ELEMENT_THEORY = SGP/SGP4

EPOCH          = 2025-11-02T12:59:18.817728
MEAN_MOTION    = 15.09728907
ECCENTRICITY   = .0020828
INCLINATION    = 97.6633
RA_OF_ASC_NODE = 20.6683
ARG_OF_PERICENTER = 206.6073
MEAN_ANOMALY   = 153.4088

EPHEMERIS_TYPE = 0
CLASSIFICATION_TYPE = U
NORAD_CAT_ID   = 65939
ELEMENT_SET_NO = 999
REV_AT_EPOCH   = 338
BSTAR          = .369E-3
MEAN_MOTION_DOT = .5916E-4
MEAN_MOTION_DDOT = 0

CCSDS_OMM_VERS = 2.0
CREATION_DATE  = 
ORIGINATOR     = 

OBJECT_NAME    = 2025-226C
OBJECT_ID      = 2025-226C
CENTER_NAME    = EARTH
REF_FRAME      = TEME
TIME_SYSTEM    = UTC
MEAN_ELEMENT_THEORY = SGP/SGP4

EPOCH          = 2025-11-02T10:49:51.204576
MEAN_MOTION    = 15.11768752
ECCENTRICITY   = .0014796
INCLINATION    = 97.6579
RA_OF_ASC_NODE = 20.6201
ARG_OF_PERICENTER = 201.1880
MEAN_ANOMALY   = 158.8739

EPHEMERIS_TYPE = 0
CLASSIFICATION_TYPE = U
NORAD_CAT_ID   = 65940
ELEMENT_SET_NO = 999
REV_AT_EPOCH   = 337
BSTAR          = .52189E-3
MEAN_MOTION_DOT = .8864E-4
MEAN_MOTION_DDOT = 0

CCSDS_OMM_VERS = 2.0
CREATION_DATE  = 
ORIGINATOR     = 

OBJECT_NAME    = YOTSUBA-KULOVER
OBJECT_ID      = 1998-067XN
CENTER_NAME    = EARTH
REF_FRAME      = TEME
TIME_SYSTEM    = UTC
MEAN_ELEMENT_THEORY = SGP/SGP4

EPOCH          = 2025-11-02T04:40:11.378496
MEAN_MOTION    = 15.53311816
ECCENTRICITY   = .00026949
INCLINATION    = 51.6327
RA_OF_ASC_NODE = 342.7961
ARG_OF_PERICENTER = 352.6363
MEAN_ANOMALY   = 7.4587

EPHEMERIS_TYPE = 0
CLASSIFICATION_TYPE = U
NORAD_CAT_ID   = 65941
ELEMENT_SET_NO = 999
REV_AT_EPOCH   = 354
BSTAR          = .79361841E-3
MEAN_MOTION_DOT = .50853E-3
MEAN_MOTION_DDOT = 0

CCSDS_OMM_VERS = 2.0
CREATION_DATE  = 
ORIGINATOR     = 

OBJECT_NAME    = BOTAN
OBJECT_ID      = 1998-067XP
CENTER_NAME    = EARTH
REF_FRAME      = TEME
TIME_SYSTEM    = UTC
MEAN_ELEMENT_THEORY = SGP/SGP4

EPOCH          = 2025-11-01T13:05:08.144160
MEAN_MOTION    = 15.54095782
ECCENTRICITY   = .00046258
INCLINATION    = 51.6331
RA_OF_ASC_NODE = 345.9591
ARG_OF_PERICENTER = 5.6465
MEAN_ANOMALY   = 354.4577

EPHEMERIS_TYPE = 0
CLASSIFICATION_TYPE = U
NORAD_CAT_ID   = 65942
ELEMENT_SET_NO = 999
REV_AT_EPOCH   = 344
BSTAR          = .10070176E-2
MEAN_MOTION_DOT = .66684E-3
MEAN_MOTION_DDOT = 0

CCSDS_OMM_VERS = 2.0
CREATION_DATE  = 
ORIGINATOR     = 

OBJECT_NAME    = E-KAGAKU-1
OBJECT_ID      = 1998-067XQ
CENTER_NAME    = EARTH
REF_FRAME      = TEME
TIME_SYSTEM    = UTC
MEAN_ELEMENT_THEORY = SGP/SGP4

EPOCH          = 2025-11-01T11:40:27.801696
MEAN_MOTION    = 15.53246328
ECCENTRICITY   = .00044075
INCLINATION    = 51.6344
RA_OF_ASC_NODE = 346.3156
ARG_OF_PERICENTER = 355.0444
MEAN_ANOMALY   = 5.0502

EPHEMERIS_TYPE = 0
CLASSIFICATION_TYPE = U
NORAD_CAT_ID   = 65943
ELEMENT_SET_NO = 999
REV_AT_EPOCH   = 343
BSTAR          = .76576249E-3
MEAN_MOTION_DOT = .48933E-3
MEAN_MOTION_DDOT = 0

CCSDS_OMM_VERS = 2.0
CREATION_DATE  = 
ORIGINATOR     = 

OBJECT_NAME    = 2025-226D
OBJECT_ID      = 2025-226D
CENTER_NAME    = EARTH
REF_FRAME      = TEME
TIME_SYSTEM    = UTC
MEAN_ELEMENT_THEORY = SGP/SGP4

EPOCH          = 2025-11-02T11:37:25.883040
MEAN_MOTION    = 15.38621241
ECCENTRICITY   = .0020259
INCLINATION    = 97.6590
RA_OF_ASC_NODE = 21.0535
ARG_OF_PERICENTER = 273.6163
MEAN_ANOMALY   = 86.2765

EPHEMERIS_TYPE = 0
CLASSIFICATION_TYPE = U
NORAD_CAT_ID   = 65944
ELEMENT_SET_NO = 999
REV_AT_EPOCH   = 339
BSTAR          = .24976E-1
MEAN_MOTION_DOT = .1039059E-1
MEAN_MOTION_DDOT = 0

CCSDS_OMM_VERS = 2.0
CREATION_DATE  = 
ORIGINATOR     = 

OBJECT_NAME    = SHIYAN-31
OBJECT_ID      = 2025-227A
CENTER_NAME    = EARTH
REF_FRAME      = TEME
TIME_SYSTEM    = UTC
MEAN_ELEMENT_THEORY = SGP/SGP4

EPOCH          = 2025-11-02T11:17:08.457792
MEAN_MOTION    = 15.20358413
ECCENTRICITY   = .0011494
INCLINATION    = 80.0034
RA_OF_ASC_NODE = 75.3949
ARG_OF_PERICENTER = 202.6806
MEAN_ANOMALY   = 157.3914

EPHEMERIS_TYPE = 0
CLASSIFICATION_TYPE = U
NORAD_CAT_ID   = 65945
ELEMENT_SET_NO = 999
REV_AT_EPOCH   = 305
BSTAR          = .39765E-3
MEAN_MOTION_DOT = .8688E-4
MEAN_MOTION_DDOT = 0

CCSDS_OMM_VERS = 2.0
CREATION_DATE  = 
ORIGINATOR     = 

OBJECT_NAME    = CZ-2D R/B
OBJECT_ID      = 2025-227B
CENTER_NAME    = EARTH
REF_FRAME      = TEME
TIME_SYSTEM    = UTC
MEAN_ELEMENT_THEORY = SGP/SGP4

EPOCH          = 2025-11-02T10:39:04.194720
MEAN_MOTION    = 15.27445498
ECCENTRICITY   = .0021337
INCLINATION    = 80.1543
RA_OF_ASC_NODE = 75.7264
ARG_OF_PERICENTER = 329.3038
MEAN_ANOMALY   = 30.6943

EPHEMERIS_TYPE = 0
CLASSIFICATION_TYPE = U
NORAD_CAT_ID   = 65946
ELEMENT_SET_NO = 999
REV_AT_EPOCH   = 306
BSTAR          = .40959E-3
MEAN_MOTION_DOT = .11097E-3
MEAN_MOTION_DDOT = 0

CCSDS_OMM_VERS = 2.0
CREATION_DATE  = 
ORIGINATOR     = 

OBJECT_NAME    = KUIPER-00101
OBJECT_ID      = 2025-228A
CENTER_NAME    = EARTH
REF_FRAME      = TEME
TIME_SYSTEM    = UTC
MEAN_ELEMENT_THEORY = SGP/SGP4

EPOCH          = 2025-11-02T11:39:04.981248
MEAN_MOTION    = 15.34795821
ECCENTRICITY   = .0006287
INCLINATION    = 51.8803
RA_OF_ASC_NODE = 214.5048
ARG_OF_PERICENTER = 201.6219
MEAN_ANOMALY   = 158.4502

EPHEMERIS_TYPE = 0
CLASSIFICATION_TYPE = U
NORAD_CAT_ID   = 65947
ELEMENT_SET_NO = 999
REV_AT_EPOCH   = 423
BSTAR          = .15957E-2
MEAN_MOTION_DOT = .54697E-3
MEAN_MOTION_DDOT = 0

CCSDS_OMM_VERS = 2.0
CREATION_DATE  = 
ORIGINATOR     = 

OBJECT_NAME    = KUIPER-00113
OBJECT_ID      = 2025-228B
CENTER_NAME    = EARTH
REF_FRAME      = TEME
TIME_SYSTEM    = UTC
MEAN_ELEMENT_THEORY = SGP/SGP4

EPOCH          = 2025-11-02T11:34:18.085728
MEAN_MOTION    = 15.35076687
ECCENTRICITY   = .0006219
INCLINATION    = 51.8806
RA_OF_ASC_NODE = 214.4820
ARG_OF_PERICENTER = 200.2521
MEAN_ANOMALY   = 159.8219

EPHEMERIS_TYPE = 0
CLASSIFICATION_TYPE = U
NORAD_CAT_ID   = 65948
ELEMENT_SET_NO = 999
REV_AT_EPOCH   = 423
BSTAR          = .75316E-3
MEAN_MOTION_DOT = .25746E-3
MEAN_MOTION_DDOT = 0

CCSDS_OMM_VERS = 2.0
CREATION_DATE  = 
ORIGINATOR     = 

OBJECT_NAME    = KUIPER-00117
OBJECT_ID      = 2025-228C
CENTER_NAME    = EARTH
REF_FRAME      = TEME
TIME_SYSTEM    = UTC
MEAN_ELEMENT_THEORY = SGP/SGP4

EPOCH          = 2025-11-02T11:35:04.568064
MEAN_MOTION    = 15.35022195
ECCENTRICITY   = .0006092
INCLINATION    = 51.8804
RA_OF_ASC_NODE = 214.4852
ARG_OF_PERICENTER = 200.5037
MEAN_ANOMALY   = 159.5706

EPHEMERIS_TYPE = 0
CLASSIFICATION_TYPE = U
NORAD_CAT_ID   = 65949
ELEMENT_SET_NO = 999
REV_AT_EPOCH   = 423
BSTAR          = .57667E-3
MEAN_MOTION_DOT = .19572E-3
MEAN_MOTION_DDOT = 0

